STARLINK-2320
1 27866C 21021G   21325.00576881  .00003642  00000-0  24394-3 0  3258
2 27866  53.0534 118.1971 0001723  79.1775 225.8861 15.06406178    11
